[
    {
        "Altitude(m)": 607895.7863648188,
        "Argument of Periapsis(deg)": 0.0,
        "Eccentricity": 0.0,
        "Inclination(deg)": 60.0,
        "Latitude(deg)": 40.99825556999707,
        "Longitude(deg)": -114.91130295561787,
        "Mean Anomaly(deg)": 130.90910000000005,
        "RAAN(deg)": 195.00000000000003,
        "Satellite Name": "Test1 866",
        "Satellite Number": 866,
        "Semi-Major Axis(m)": 6980739.136638005,
        "Time(s)": 0
    },
    {
        "Altitude(m)": 607795.0990952849,
        "Argument of Periapsis(deg)": 0.00010418945913296404,
        "Eccentricity": 0.0,
        "Inclination(deg)": 60.0,
        "Latitude(deg)": 40.530579306933284,
        "Longitude(deg)": -114.41471058319767,
        "Mean Anomaly(deg)": 131.5292061454618,
        "RAAN(deg)": 194.99957995086024,
        "Satellite Name": "Test1 866",
        "Satellite Number": 866,
        "Semi-Major Axis(m)": 6980739.136638005,
        "Time(s)": 10
    }
]